ONEWEB-0094             
1 45450U 20020AC  25106.89968266  .00000047  00000+0  86894-4 0  9999
2 45450  87.9018  90.7309 0002083  86.5113 273.6256 13.17647759250174
ONEWEB-0087             
1 45451U 20020AD  25106.91381364  .00000448  00000+0  12292-2 0  9995
2 45451  87.8788 105.9849 0002164  85.0915 275.0460 13.11414128246714
ONEWEB-0082             
1 45452U 20020AE  25106.91054717  .00000556  00000+0  15341-2 0  9993
2 45452  87.8793 106.0042 0001953  84.0761 276.0589 13.11417396246804
ONEWEB-0050             
1 45453U 20020AF  25106.81756795  .00003445  00000+0  35207-3 0  9992
2 45453  87.9962 310.9891 0004942  78.3290 281.8493 14.90319729276895
ONEWEB-0034             
1 45454U 20020AG  25106.93258988 -.00000228  00000+0 -68051-3 0  9998
2 45454  87.8796 106.0189 0001961  86.4997 273.6355 13.11415566246729
ONEWEB-0060             
1 45455U 20020AH  25106.97511038  .00000474  00000+0  13002-2 0  9997
2 45455  87.8800 106.0360 0002068  93.5638 266.5727 13.11419534246685
ONEWEB-0086             
1 45456U 20020AJ  25106.95802322 -.00000138  00000+0 -42657-3 0  9993
2 45456  87.8793 106.0131 0002250  81.1589 278.9793 13.11419802246749
ONEWEB-0088             
1 45457U 20020AK  25106.93596278 -.00000379  00000+0 -11052-2 0  9993
2 45457  87.8790 105.9696 0002130  87.7416 272.3956 13.11417056246679
